{"type":"FeatureCollection","features":[{"type":"Feature","geometry":{"bbox":[-3.8767645084422457,50.714937238081674,-3.375843238579692,51.165436765807755],"type":"MultiPolygon","coordinates":[[[[-3.8657387275904433,50.73086209500968],[-3.863645577742465,50.730607787942155],[-3.8625090005606766,50.73017627637949],[-3.8616379417370545,50.72965057709222],[-3.8614275706790617,50.729348154857256],[-3.8604532245473075,50.72907591702871],[-3.858742668181081,50.729534902005206],[-3.858161419451313,50.729885926777236],[-3.8575709161356526,50.73000326271652],[-3.8575296651832263,50.73003404559161],[-3.8572045941667117,50.72181585526039],[-3.843045727168448,50.72204062485015],[-3.8429863526185066,50.72052761832722],[-3.844990900645834,50.7207058557752],[-3.8453788638819937,50.72048386711726],[-3.8460825476526757,50.720364799574035],[-3.847095610492019,50.71982711947013],[-3.8482771220953875,50.71961052851422],[-3.8496440935447382,50.71906721269336],[-3.851968821798456,50.71874249843757],[-3.8530603711566225,50.718401377797],[-3.8550125476481694,50.71831651674636],[-3.8560461891914275,50.71795814505724],[-3.8581702814494148,50.716503306835],[-3.8589871283893196,50.71638235640126],[-3.8596669777463286,50.71602075258635],[-3.8610468578389807,50.715809865474995],[-3.8615040635689115,50.71555074210259],[-3.8625615505717907,50.71542592239973],[-3.863315706868518,50.715153045571384],[-3.8643625419703227,50.7161885627738],[-3.866194604400523,50.717285239659084],[-3.8664449788204633,50.7179719407745],[-3.866854964835274,50.71830713141323],[-3.8682545679961606,50.71859048594823],[-3.870038348608911,50.71998286850481],[-3.8728000732053727,50.72031625314103],[-3.8732907726954062,50.72054220085099],[-3.8742237829595276,50.72049122554097],[-3.8759894556541648,50.72071463824551],[-3.8770302844044604,50.7215882417519],[-3.876081680662729,50.72231401832621],[-3.875721219078914,50.72464017394883],[-3.875461721172684,50.72523792876538],[-3.8745282849947813,50.72599042223309],[-3.8744357534363636,50.72649555281636],[-3.874605010802644,50.72789583404824],[-3.875157528651558,50.728264677561675],[-3.8753482769253527,50.72878323790739],[-3.87634802372869,50.72933373833705],[-3.8747903249472593,50.7293588054727],[-3.874920975326331,50.729437652574894],[-3.8739774036850596,50.72993848268231],[-3.873390179292375,50.73084728366081],[-3.8708906122931968,50.73070756164393],[-3.8702662412458033,50.73104135213337],[-3.868265327963502,50.731325263797636],[-3.8676563809848594,50.731335023311644],[-3.8657387275904433,50.73086209500968]]],[[[-3.6013722933771977,51.16188074664114],[-3.597025387801462,51.161402285465606],[-3.594680006274519,51.16144328642542],[-3.5923212898929275,51.16188909452512],[-3.5895088681349674,51.16203527033904],[-3.588088339812433,51.1623153499632],[-3.5893324639603716,51.161480119294986],[-3.589432199073541,51.160637154509985],[-3.5891378308349338,51.155817345946154],[-3.5885364602528926,51.15496221518872],[-3.5820990578298493,51.15321497662678],[-3.581040501272769,51.15236599285666],[-3.5808560906703653,51.15199079165562],[-3.5798651918291506,51.15144663532369],[-3.579527439451044,51.15076775106217],[-3.5789739209642595,51.15046947435155],[-3.5779026062142694,51.149242940025225],[-3.575160137428907,51.14764324110179],[-3.574650995936768,51.14696665159712],[-3.574216160771016,51.1467926523297],[-3.5734317139384566,51.146848275674685],[-3.5727744073139394,51.14661856913189],[-3.572167115553585,51.14665835314608],[-3.5704889186525457,51.14565573566862],[-3.5690714052738897,51.14517117440828],[-3.5689938577625027,51.14499236051763],[-3.568003581898273,51.14487974693884],[-3.565916635476885,51.144889730517576],[-3.5625046835359755,51.1446116388711],[-3.560575199955698,51.14505107329851],[-3.5576827873525128,51.145341492382215],[-3.5566651572051295,51.14526506508556],[-3.555041693626936,51.14460322190565],[-3.5524489836435573,51.14402617155168],[-3.551122441074875,51.14411571932864],[-3.5500186740320556,51.14445409481468],[-3.54874084813313,51.144291173757175],[-3.54833230673491,51.14404478873589],[-3.548278005821962,51.143703784817475],[-3.5476722797086486,51.14311828549259],[-3.5467117382235744,51.142609419085574],[-3.5463549720809233,51.142200473469224],[-3.5450819040115986,51.14174968305013],[-3.543446133147372,51.140710148616215],[-3.542591124356291,51.14056855651415],[-3.542544635670594,51.13991270201225],[-3.541437565803699,51.138776235942565],[-3.5415615822570485,51.13820805996854],[-3.5411850022078544,51.13806014856559],[-3.5398124512829905,51.138051255429275],[-3.5390042479076933,51.13781909375096],[-3.5384940641739107,51.13795170634815],[-3.537403991965668,51.137840147655275],[-3.5366681794737116,51.13806564608231],[-3.535862676289515,51.137914361635985],[-3.5352202840181706,51.13750913414188],[-3.534821369028899,51.13668704251491],[-3.5334717742344908,51.13650691231213],[-3.5327032137517436,51.135743617556834],[-3.5317120344254507,51.1351630887484],[-3.531343284142286,51.13352225355904],[-3.530628684957822,51.132659318552044],[-3.5305090794839717,51.13163571531638],[-3.5314859092245077,51.130921491546474],[-3.5314924715734843,51.13025594471651],[-3.53099159403744,51.12980387665019],[-3.5307797711672126,51.127720340225146],[-3.530363448575409,51.12723119136437],[-3.528905509387704,51.127223289374534],[-3.5270107238730315,51.12696928002269],[-3.525762090649016,51.126374078270665],[-3.5238641012989453,51.12602114007228],[-3.5231928197316513,51.12559823808609],[-3.5225292367199623,51.125409042573914],[-3.521331931183809,51.12463327103369],[-3.5204969616152892,51.1244462942775],[-3.519562723223997,51.12384693715605],[-3.5173739057524727,51.12333580526755],[-3.5150109527428,51.12317759615929],[-3.5147252800454503,51.123181298017464],[-3.5144338195210985,51.123445871733495],[-3.5136141798638056,51.12372626826173],[-3.5119345881881916,51.12400879137877],[-3.5092839779379794,51.12404327331772],[-3.5078726608572857,51.12381845153867],[-3.502024449013738,51.12370488251697],[-3.4999698808097386,51.1233625708735],[-3.4985695408206294,51.12248126044609],[-3.4979015820946264,51.12038552974846],[-3.49749235833533,51.12010300623409],[-3.497301780106783,51.119511929194786],[-3.496408220257182,51.11839029064297],[-3.4957402017340353,51.118057117345145],[-3.4948742723671002,51.118178696197695],[-3.494264963361084,51.11782644290955],[-3.493930930198133,51.11689321692788],[-3.4930738106059342,51.11645453261177],[-3.492072932449253,51.11643134130639],[-3.491653551211782,51.11627482493733],[-3.491070128809897,51.11590457480665],[-3.4907100104057243,51.11536960571903],[-3.4898369330169494,51.11487714511695],[-3.488305210505186,51.11433910953828],[-3.4876857698447483,51.11373549099982],[-3.486823721111315,51.11358459028337],[-3.4838573310309915,51.11374818098726],[-3.4815813881813713,51.11316554626664],[-3.4808244178250587,51.112725503289994],[-3.480482084925198,51.11184855526451],[-3.479341802186628,51.11103566360732],[-3.4790920785527057,51.11037336413411],[-3.4786567938593227,51.11016304646224],[-3.4778662389617576,51.11001117560915],[-3.4749919854138587,51.10992158189506],[-3.474118604435931,51.1094110230787],[-3.4732840941982355,51.109223704872505],[-3.4722022620598563,51.10844597810919],[-3.471167866280318,51.10826116221405],[-3.469743393925865,51.10748772478699],[-3.4690260184429667,51.10738883039622],[-3.468343821154215,51.10704667800347],[-3.4676298727585086,51.10705564434417],[-3.4666303443891664,51.10706818989995],[-3.4631141400329093,51.109261516796806],[-3.4617546368779464,51.109638233028654],[-3.4592350383188775,51.10992150911071],[-3.458027602844289,51.109684781000986],[-3.4563239275060527,51.10911250221192],[-3.453837882287525,51.10922438302841],[-3.4516136850724677,51.10969266648415],[-3.450153341540219,51.11050214784692],[-3.4484904346870593,51.110774560630055],[-3.446719683925139,51.11079648967989],[-3.445932024647134,51.11073429410761],[-3.444682054292386,51.11004832105479],[-3.4436158056152233,51.109755743331355],[-3.4423894168659466,51.10890758663591],[-3.441261615171512,51.108471864384065],[-3.440544281678962,51.108372794871464],[-3.4401047167426118,51.10801850445215],[-3.4400655387988017,51.10767726571574],[-3.439621514493896,51.10717914571641],[-3.4379643392654162,51.10671393976636],[-3.436318902585073,51.10662625822224],[-3.435095158935064,51.10631755301025],[-3.433153220430609,51.106341378859774],[-3.430320340834029,51.106956128873236],[-3.4297721472163243,51.10694291779112],[-3.429729063031912,51.10554691270007],[-3.4210986404311665,51.10565215758935],[-3.420842869262268,51.10503485485905],[-3.416389525807645,51.10327238676681],[-3.415194556045644,51.10249550719561],[-3.4139523913445404,51.10204292200794],[-3.413100977250118,51.10128884266454],[-3.412814055991473,51.101247347818926],[-3.4124148904225557,51.100334921020604],[-3.412281768583753,51.1001836454175],[-3.4119962245202813,51.10018709523149],[-3.4119051540447822,51.09860549659416],[-3.411455299611364,51.0969652731105],[-3.410722333247019,51.0963446358584],[-3.4102622175926944,51.09624227651616],[-3.4102694324174747,51.09554076186824],[-3.408502671560743,51.09473542122966],[-3.4083751666320907,51.09408049338081],[-3.4073292532492396,51.09382263215071],[-3.407057251144464,51.09322339863006],[-3.4067929325155557,51.09298377849138],[-3.406362772542036,51.09292600666584],[-3.406350771011661,51.09253047390978],[-3.406902665631866,51.09189434532601],[-3.407716400109092,51.09141692855246],[-3.4080146017024635,51.09089176182085],[-3.4111233015861635,51.088875882008445],[-3.412973978234616,51.08822403525974],[-3.4157424860606307,51.08770492717121],[-3.4167251360928788,51.087153458925236],[-3.417439305233419,51.086227546151775],[-3.418109004347351,51.08571583177984],[-3.4181937625025056,51.08475258616846],[-3.417626397722991,51.08394113537779],[-3.4157638742853704,51.08279466402398],[-3.4153829378711955,51.08060506268319],[-3.4152303492306704,51.080283173835625],[-3.4148247253595563,51.080090246036725],[-3.4146755038773446,51.07941059283242],[-3.414612096956856,51.07826657985614],[-3.4143527664588453,51.06976327063321],[-3.4100646882176346,51.069815091845065],[-3.408453403078676,51.069834523459754],[-3.408472034617306,51.06975752138627],[-3.4076417298459587,51.069205903321084],[-3.4073038415108106,51.068418615539954],[-3.4055332505362848,51.06745072869948],[-3.4047848243822307,51.067243903626135],[-3.403928495175912,51.06630096890425],[-3.4017566764437914,51.066219129433655],[-3.4006478181179673,51.065890703338496],[-3.3991180235365483,51.06580111762479],[-3.3971082311673744,51.06541150014902],[-3.396415862037017,51.065642264386],[-3.394840516698129,51.065461082782484],[-3.3940412293833133,51.06593373465254],[-3.3935825323068087,51.06586726438277],[-3.3937660632157396,51.06532551393384],[-3.3926882077707536,51.06460096431013],[-3.3923034617993495,51.063193696316],[-3.391397676518938,51.062494062536146],[-3.3905742918684307,51.06216214168336],[-3.390076071759878,51.06220404044988],[-3.389891958677088,51.06177458121686],[-3.389841587592973,51.05818709411422],[-3.389097421972477,51.057161782750306],[-3.38858209931693,51.05694309039718],[-3.3883390369815833,51.05566002235364],[-3.389917956650465,51.05501195153575],[-3.3909946354874343,51.05404250295071],[-3.391085852914074,51.053520667291345],[-3.3914058884782765,51.0532494674427],[-3.391437608134545,51.052403775058075],[-3.3918283359785155,51.05211135460211],[-3.3919286880609607,51.05165153090229],[-3.390910116941634,51.05098920740028],[-3.390307334859451,51.05087048362271],[-3.390111690804892,51.05005447472673],[-3.390496214305181,51.04955529998733],[-3.391457391272811,51.04925609027408],[-3.392075738909534,51.048942972305326],[-3.3920988705144484,51.04876284239387],[-3.391713535087203,51.04828238923099],[-3.389969854616038,51.04722345724701],[-3.388353797653224,51.046613181657655],[-3.3867886206106985,51.046272061371354],[-3.385204600542001,51.0462548812958],[-3.3833405191906594,51.0459352437807],[-3.3818440280213817,51.0455033170724],[-3.381349004932227,51.04516744772372],[-3.3800882041626035,51.04498450775274],[-3.3795931992322656,51.04464863079582],[-3.3774340215923466,51.04447626688317],[-3.3767880436021414,51.04433999754749],[-3.3764940437893802,51.04404670226454],[-3.3757442978335575,51.041852318837954],[-3.3763498654831667,51.04110778397989],[-3.375860946550259,51.033271890379055],[-3.3750196782839983,51.03279618791062],[-3.3737051692470175,51.030302681642866],[-3.3750853739433992,51.02923429439011],[-3.375890488979686,51.028973018264736],[-3.3762878492829493,51.029013301239374],[-3.376556769648826,51.028839270829216],[-3.3762256044461383,51.02632520715346],[-3.375958902449741,51.025986624867755],[-3.375913887277886,51.0254296054211],[-3.3754710576099196,51.0249131489868],[-3.374324932143908,51.02481334794332],[-3.373708881572985,51.02449333301967],[-3.37217533584741,51.024376465600234],[-3.371771707728599,51.02422832956067],[-3.371648386468606,51.02391503190621],[-3.371717301949765,51.022385457432925],[-3.3721036591982303,51.02194926850478],[-3.372257178394865,51.02135394437415],[-3.372866768238482,51.02099606485602],[-3.3732927673307307,51.020937101048965],[-3.3750335597242898,51.01977454451359],[-3.3753088086736684,51.018476348820485],[-3.3756825025069843,51.01809620811221],[-3.3758299324531778,51.01681554645927],[-3.376767316955555,51.01625586368124],[-3.3984594230948293,51.01599817733122],[-3.398729982743226,51.024987699837325],[-3.4129840872329376,51.024816156174275],[-3.412710773127786,51.015826688346834],[-3.44911570051631,51.01538072486318],[-3.4554639754228686,51.015301795746886],[-3.4557455523258183,51.02429109621662],[-3.486692747348153,51.023901334143915],[-3.497910203975721,51.02375803143295],[-3.4985057151600674,51.023750393669815],[-3.4984695632628537,51.022629423240964],[-3.498215876338122,51.0147612655399],[-3.4839653896523353,51.014943179717946],[-3.483678452127832,51.005953978500386],[-3.4780360180431327,51.0060255171484],[-3.469430570578967,51.00613409782557],[-3.4693900970955247,51.00485347511459],[-3.468862638289557,50.98815553534453],[-3.454620111911487,50.98833380407584],[-3.4543391128153065,50.97934444343089],[-3.4652848156125047,50.979207611552944],[-3.474458501911679,50.97909214101409],[-3.482818523102312,50.978986284321046],[-3.4831050189521418,50.98797553080211],[-3.497347252489257,50.98779379049063],[-3.497082087531375,50.97955311460266],[-3.4970580084109053,50.978804601920515],[-3.5112973452842637,50.978621184345954],[-3.511537924869497,50.986027886275515],[-3.511589337491015,50.98761031445246],[-3.5128234359125674,50.98759433416568],[-3.525831272547628,50.98742510273051],[-3.5256023063930204,50.9804424294643],[-3.525299270485053,50.97119658853642],[-3.5252419433324054,50.96944694539439],[-3.534962725005923,50.96931956391769],[-3.539478232592257,50.9692601171466],[-3.539449350676226,50.96838671431571],[-3.5391810496531733,50.96027107526812],[-3.5249475055022548,50.96045784399289],[-3.5246532187212694,50.951468727435625],[-3.53888401917001,50.951282018211025],[-3.538587141040077,50.94229294597517],[-3.5528150469419435,50.942104563391695],[-3.5527473339336195,50.94007244109528],[-3.552515580273642,50.93311553598305],[-3.5777509583129925,50.93277718527248],[-3.5809654484401334,50.932733694149874],[-3.5812492271143865,50.94109874607944],[-3.5812703963751336,50.941722599892096],[-3.589428309667184,50.94161181420325],[-3.599281270267755,50.9414772490629],[-3.5991854545538273,50.941559579552006],[-3.598281686810608,50.94176980350691],[-3.597666775147895,50.94210197020341],[-3.595211794580653,50.94218050760019],[-3.5945979331570723,50.9422698315304],[-3.5941089146000857,50.9425373002495],[-3.5937631683985596,50.94366615890323],[-3.5941329336799788,50.9444884697487],[-3.5936620850082983,50.944872605834405],[-3.594956646071121,50.94609596557851],[-3.5957960761495147,50.946498173909774],[-3.5972565589302725,50.947575351620245],[-3.597747035830382,50.94859384612359],[-3.5983854699017668,50.9489448283723],[-3.599732929442258,50.94921414951456],[-3.6004171642205254,50.94965442348382],[-3.599957459414872,50.94994850153553],[-3.6000346528430316,50.95053799099926],[-3.599524259562471,50.951429294962786],[-3.5985794218812193,50.952107720279585],[-3.598303105023652,50.95567274232513],[-3.5985845734859514,50.95640631679118],[-3.5998239531181575,50.9568389918062],[-3.6007669726183855,50.95693398245371],[-3.60123105065908,50.957179423414814],[-3.6029481828901515,50.9574256517164],[-3.6063948422495384,50.95745022469707],[-3.607757495448885,50.95711671207994],[-3.611419327922812,50.95698529175914],[-3.612181712175468,50.957208585790575],[-3.6138110153098366,50.957383923030626],[-3.6150499354651937,50.95779845737896],[-3.6157764008276487,50.95780639200443],[-3.6165561712122916,50.95811934736809],[-3.6172665364508996,50.9580735374307],[-3.6182217943927313,50.95851894633744],[-3.618533969763427,50.95848764002206],[-3.618612490964449,50.95828870460382],[-3.619253570179434,50.958297801344195],[-3.619701649572308,50.95848943298225],[-3.6200310214590083,50.95895250131491],[-3.6208765295940495,50.95951632094863],[-3.6209096937695433,50.960469122707636],[-3.620362894660076,50.96112421131125],[-3.6199118107815584,50.96125637317184],[-3.619733806721857,50.96187036916754],[-3.619053728489122,50.961969732056836],[-3.6184264828463513,50.962769815266654],[-3.61775076069663,50.962995012546116],[-3.6170590509366045,50.96358014853848],[-3.6164593323085064,50.9655849052466],[-3.61871193956216,50.966884666039135],[-3.6191364644697277,50.96762520117117],[-3.619156472198798,50.96820047741642],[-3.61869591084423,50.96888134004228],[-3.619947067640406,50.96963738862241],[-3.620103502547007,50.9700399042897],[-3.6204260971561815,50.97603377239096],[-3.620209245800388,50.97716990136408],[-3.619254682138588,50.97798351224783],[-3.618546746866411,50.97831708348338],[-3.6183389907459236,50.97868867640372],[-3.618681243867168,50.9789180215774],[-3.6191059815295903,50.97996058049907],[-3.6202017405185716,50.981045993435856],[-3.6203885750659683,50.98150204444535],[-3.621378778290184,50.98211781052707],[-3.622120212589205,50.98295285637174],[-3.6223909466763593,50.983362773657134],[-3.6223304106831735,50.98367230055024],[-3.6230063549958214,50.98442930456192],[-3.6233919983730742,50.98592086138241],[-3.6262719866955266,50.98760744676596],[-3.627334456665582,50.988653820548116],[-3.628607221753727,50.98919364391986],[-3.6296856686462093,50.989880053472824],[-3.6348450162136805,50.989915856676824],[-3.6360527137418233,50.99022269197151],[-3.6367660765587737,50.99024866794897],[-3.637847831721696,50.991834257345566],[-3.6404514632813822,50.99333550980937],[-3.6400526525221992,50.99374580468866],[-3.639509260329198,50.99530922477927],[-3.6385764876397,50.996338525406046],[-3.638423928325006,50.996862259986116],[-3.637840875962138,50.99730210236221],[-3.6365282304944295,50.997543689254826],[-3.635590899555023,50.998160990513966],[-3.633837857213479,50.99856323412291],[-3.633447850711456,50.998820493422336],[-3.6314364668738546,50.99917235571883],[-3.630693728130051,50.99993814003965],[-3.6288867433244842,51.00043099173193],[-3.6266801562588995,51.00253912597695],[-3.626433846409018,51.00405336930969],[-3.625436607737529,51.0040672522901],[-3.6255106377463693,51.00414716689969],[-3.6250578978529853,51.00424339695561],[-3.622046452918599,51.00453706237636],[-3.6195520709880116,51.00453570596243],[-3.619084441944946,51.00461413328953],[-3.6178297820758725,51.0054229010635],[-3.6171911798482044,51.00550368891036],[-3.6164218540097623,51.00551433875023],[-3.6137687251352495,51.00504742111693],[-3.6110727079491256,51.00498571042908],[-3.611187979737483,51.00543377670093],[-3.6109505363047694,51.00598562284864],[-3.6097564171834744,51.00731295255863],[-3.609524924491316,51.009683390241854],[-3.6098021457024383,51.009868429941804],[-3.609998651997433,51.01060314393135],[-3.6107253985591576,51.0110068000659],[-3.6122767067605723,51.011345114898745],[-3.6141786355954437,51.011516690914306],[-3.6149203056622636,51.011938100800826],[-3.6161841969722373,51.012208393819506],[-3.6165209283733977,51.0124628814138],[-3.6166914329762263,51.01367621950008],[-3.6171927970571733,51.01415489870946],[-3.6166732051155206,51.01479159859848],[-3.614747979126907,51.01600529973062],[-3.6141732057386187,51.016696708596896],[-3.613227903999787,51.01739323250295],[-3.6131821349523645,51.01771761082415],[-3.6119852728279866,51.01856148550475],[-3.611436298717296,51.019998938716554],[-3.610628730703606,51.020558646366865],[-3.6103416772993735,51.02132700420802],[-3.6099826573619835,51.02166469196556],[-3.610107261620822,51.021968734486634],[-3.610750546806793,51.02242749862628],[-3.61095522866515,51.02339591356589],[-3.6109284738913705,51.02591430516354],[-3.610808382444673,51.026563452596825],[-3.609858471477711,51.0271341094387],[-3.6096765061926934,51.02856558135922],[-3.6081888216348665,51.02957105722884],[-3.604449194666098,51.030715772178205],[-3.603298933356366,51.03127114023055],[-3.6018784252376936,51.032261862962],[-3.599940327459158,51.03313375708014],[-3.5997773127620594,51.033369805378236],[-3.598310522438947,51.03370463487025],[-3.59699243989702,51.03450504441592],[-3.5955090129540723,51.036162024253784],[-3.595958231498535,51.03761273908332],[-3.59637039847351,51.03798480970664],[-3.597058836026097,51.0405833426536],[-3.5979055770758377,51.0411473101505],[-3.5980463939102107,51.044823471131224],[-3.6010292733079847,51.04569092406143],[-3.6022766598154594,51.046285340656695],[-3.602949333428859,51.04634805660192],[-3.606026871499138,51.046233848533674],[-3.6083501718022375,51.04576122679269],[-3.609867457563861,51.045497529786715],[-3.6134322240778305,51.04544835475285],[-3.6168893107734505,51.04599409347326],[-3.6200189698933736,51.04614858260514],[-3.6218418214467536,51.04646502296398],[-3.6241444847026547,51.04663087911998],[-3.6246951473133646,51.046875024463105],[-3.6264448707450114,51.04713845263672],[-3.626883994965419,51.04745608378784],[-3.6279467676043446,51.047657109972924],[-3.62968632071498,51.048442220963764],[-3.630480978125385,51.04913258157769],[-3.6323885915163534,51.049825377907],[-3.6370935213272872,51.050137249409325],[-3.639090939170372,51.05054090480702],[-3.6407346999807793,51.05062574778213],[-3.6437057059491593,51.05112356331491],[-3.6441709592537905,51.051368818982716],[-3.6456468159297035,51.05154588505235],[-3.647917016428125,51.052395194245676],[-3.6494674182534683,51.05266109013522],[-3.650512749254346,51.053167917898264],[-3.651457822928833,51.05326247853477],[-3.651923138173991,51.05350770267132],[-3.654624117332442,51.05402704513982],[-3.655060933850847,51.054272660455595],[-3.659445501547761,51.05478601670755],[-3.660618056910173,51.05525497584331],[-3.6611894908390075,51.05527383148643],[-3.6626070364779744,51.05571464392197],[-3.6649824164955582,51.057189297192856],[-3.6653843409359435,51.0572555125599],[-3.6657116621481225,51.05762855019094],[-3.667319385810349,51.05789339306235],[-3.6681050686925385,51.05831383997161],[-3.669164380912452,51.05840662695477],[-3.6701815281800774,51.058913682559904],[-3.6771690639950734,51.05996468804599],[-3.6797383622292443,51.05998173730452],[-3.6820313431459493,51.060263503880165],[-3.6841982081856166,51.06018732526551],[-3.686435658135962,51.060496784866274],[-3.6875341604136884,51.061272304863664],[-3.6883692854274273,51.061476071351855],[-3.689138470012763,51.06222036270955],[-3.6907441552999427,51.06320435063662],[-3.6922264541099197,51.063542610659425],[-3.7002509511770136,51.06403764016955],[-3.702872249175634,51.06390953757918],[-3.7028828062434918,51.06419715873447],[-3.702080546268236,51.064892313566126],[-3.702068505640291,51.06534213730295],[-3.701719107244169,51.06593168790933],[-3.6711494572097183,51.06637289474663],[-3.6714733314497736,51.07536119134488],[-3.657205426082403,51.07556440423482],[-3.657360494860476,51.07990331497136],[-3.657526704377302,51.08455275025321],[-3.643255871236711,51.08475428663506],[-3.6435745507489354,51.09374268156869],[-3.629300789612577,51.09394254031043],[-3.629616867502469,51.10293098365377],[-3.625328924870795,51.10299068948517],[-3.586786317203768,51.103520295795875],[-3.5863618373820114,51.0911222852082],[-3.586170914454653,51.08554301799669],[-3.582894665851329,51.08558743873104],[-3.543355531186383,51.08611628035629],[-3.54361420642211,51.09388457401637],[-3.543807762138313,51.099694993744905],[-3.544253977787412,51.11308272298938],[-3.558433055867645,51.112894544771734],[-3.558534226668568,51.11289319589652],[-3.5585560852940947,51.11354274800407],[-3.5588367862274484,51.121881919283794],[-3.565927608424583,51.12178714975136],[-3.5874023534627013,51.12149751260449],[-3.587700808508811,51.13020037984352],[-3.5877106094264257,51.13048609813747],[-3.5885285540643017,51.13047498682213],[-3.6019959260376955,51.13029121695008],[-3.60235015833689,51.14052272978153],[-3.6026184587842085,51.14826821787981],[-3.616909159668194,51.1480714668999],[-3.6173672108276596,51.161170143758305],[-3.612654222486183,51.16135865370738],[-3.612202432070955,51.16152675290617],[-3.6101048495804036,51.16166356678041],[-3.6087444267275264,51.162024014982286],[-3.6073043819877597,51.16215173048465],[-3.6061312868601427,51.16250058033419],[-3.6028182251743504,51.162285249535195],[-3.6013722933771977,51.16188074664114]],[[-3.6147137148506756,51.085152135242005],[-3.6144007247596472,51.07616359810769],[-3.600132167306643,51.07635984764379],[-3.600442394444128,51.085348447373924],[-3.6147137148506756,51.085152135242005]],[[-3.442608598156291,51.06042513134602],[-3.442329201715406,51.05143583462202],[-3.417827059950827,51.05173573097633],[-3.399542496299314,51.05195617760973],[-3.3998136126683343,51.0609456402861],[-3.415266680491852,51.060759495564554],[-3.442608598156291,51.06042513134602]]]]},"properties":{"id":5,"category":5,"range":"100 - 125","dissolve":0}},{"type":"Feature","geometry":{"bbox":[-3.8407488593801244,51.063824126915044,-3.546304023860451,51.17445791920835],"type":"Polygon","coordinates":[[[-3.6173672108276596,51.161170143758305],[-3.616909159668194,51.1480714668999],[-3.6026184587842085,51.14826821787981],[-3.60235015833689,51.14052272978153],[-3.6019959260376955,51.13029121695008],[-3.5885285540643017,51.13047498682213],[-3.5877106094264257,51.13048609813747],[-3.587700808508811,51.13020037984352],[-3.5874023534627013,51.12149751260449],[-3.565927608424583,51.12178714975136],[-3.5588367862274484,51.121881919283794],[-3.5585560852940947,51.11354274800407],[-3.558534226668568,51.11289319589652],[-3.558433055867645,51.112894544771734],[-3.544253977787412,51.11308272298938],[-3.543807762138313,51.099694993744905],[-3.54361420642211,51.09388457401637],[-3.543355531186383,51.08611628035629],[-3.582894665851329,51.08558743873104],[-3.586170914454653,51.08554301799669],[-3.5863618373820114,51.0911222852082],[-3.586786317203768,51.103520295795875],[-3.625328924870795,51.10299068948517],[-3.629616867502469,51.10293098365377],[-3.629300789612577,51.09394254031043],[-3.6435745507489354,51.09374268156869],[-3.643255871236711,51.08475428663506],[-3.657526704377302,51.08455275025321],[-3.657360494860476,51.07990331497136],[-3.657205426082403,51.07556440423482],[-3.6714733314497736,51.07536119134488],[-3.6711494572097183,51.06637289474663],[-3.701719107244169,51.06593168790933],[-3.701262076378403,51.06670282631727],[-3.7004371496589394,51.06756017258039],[-3.698620416749754,51.06783839946229],[-3.6952936376413126,51.067751819076584],[-3.69449528956807,51.06822203991737],[-3.694272059271586,51.070707331960826],[-3.693364943473143,51.07166474083592],[-3.6934319212167632,51.07310822562936],[-3.6936681946804373,51.07332404127854],[-3.6952469552271427,51.07394864034774],[-3.697175617310053,51.07516167142011],[-3.6988906117430824,51.075487475603325],[-3.699833594748618,51.075509734081585],[-3.700565831156984,51.07574188995581],[-3.7013654830458163,51.075748235972476],[-3.702565542722129,51.07616241909995],[-3.703871180852868,51.07634123382536],[-3.704543361489122,51.07676309257558],[-3.705579914092703,51.076999770789605],[-3.706777108575292,51.07694631911694],[-3.708653088920137,51.077320329623596],[-3.7100056661998866,51.07739431060621],[-3.7136294208129774,51.077331654423126],[-3.7144911355145767,51.077085197676126],[-3.715928215152005,51.07695618867221],[-3.7165894942149786,51.07669467346763],[-3.7200263187996536,51.07621247398408],[-3.721190421137399,51.076806855315034],[-3.722837846222319,51.07811353794603],[-3.724501199269626,51.07907822967875],[-3.7266588874298994,51.07951400256463],[-3.727819807778312,51.080018435693304],[-3.7321923072974226,51.080502266228116],[-3.729559480116486,51.082258929392644],[-3.729427513542566,51.082548657479734],[-3.7294051817596356,51.08539474499625],[-3.7297398225176748,51.08670993613282],[-3.7300080522721775,51.087009560038624],[-3.73046619242752,51.08742545532132],[-3.732880852475993,51.08708391458728],[-3.734322219910905,51.08706253288524],[-3.7392862647324017,51.087690210380785],[-3.7406018101020297,51.088120272467535],[-3.743516906260631,51.089695553669515],[-3.7444185351822576,51.09088715730487],[-3.7446591569041106,51.092727124570345],[-3.7454563983861187,51.09493648380915],[-3.74587902897556,51.09511902342714],[-3.7465090477295258,51.095145167488546],[-3.749038912281116,51.09601603866479],[-3.749397060609137,51.096949209758975],[-3.7508237348511795,51.097895824087935],[-3.7520553879125282,51.09949610126216],[-3.753060749499714,51.100398308473665],[-3.7532796445149823,51.10089863117311],[-3.7539397000420376,51.100978657367335],[-3.756900290697701,51.102966601875536],[-3.7589988706735475,51.103312742018595],[-3.7600437985802615,51.10374665984082],[-3.762090282908289,51.104974840390334],[-3.762830773077892,51.10566512603664],[-3.7637424557806747,51.10709924033698],[-3.764130826524176,51.10904485329371],[-3.765183467616392,51.10967645456108],[-3.76730959475991,51.109986059103974],[-3.7700196187814514,51.10987310767944],[-3.771280710030755,51.10960220034669],[-3.7736208597144167,51.109530741727205],[-3.77401581234155,51.10939884625275],[-3.774548901656038,51.10951665563973],[-3.7758288619830873,51.108993609129776],[-3.7800024590307766,51.10867832040453],[-3.781785976231345,51.10899287897852],[-3.7826055696064373,51.109501975168705],[-3.783269947021463,51.109689686398056],[-3.7852058529725507,51.110991096499085],[-3.785873034560118,51.11125069411514],[-3.7878607455601037,51.111669956386095],[-3.790406417950039,51.111738906038724],[-3.7907003205309016,51.111950235515735],[-3.7910708581740455,51.11192657222559],[-3.791665303344639,51.11215127955938],[-3.7932230225958534,51.112163363698585],[-3.795297912920401,51.11335455989361],[-3.7964005163616683,51.113787269038426],[-3.799392135339913,51.11429881889702],[-3.800815227084574,51.11488842645513],[-3.802682693107592,51.115147416431704],[-3.8030031316089583,51.11530434802841],[-3.8053811725145428,51.1154654882217],[-3.8085506635495516,51.1161359311977],[-3.8093350921508145,51.116465525607175],[-3.8110813997753357,51.11654639716578],[-3.812423134856532,51.116876318678834],[-3.8125694483107497,51.116963979972425],[-3.814543680213894,51.11739200160669],[-3.8149656196393735,51.11764242599156],[-3.8156013644915316,51.121044724157386],[-3.8183994321275136,51.12315955144809],[-3.8198244484116635,51.12378487154994],[-3.820716692559897,51.12467027803598],[-3.8215488249361447,51.12693254388269],[-3.822389694302224,51.12796262622176],[-3.8225172490394628,51.12975024461955],[-3.8239396913407226,51.13030361144089],[-3.8240918614108135,51.131263487986416],[-3.8239092426063968,51.1317069942703],[-3.8243233662039144,51.13206025223489],[-3.82545879751673,51.13258210749618],[-3.827130675240506,51.132933694668196],[-3.8282125716624735,51.13354629009946],[-3.8293983251679617,51.13461589339694],[-3.8298912906218248,51.13551531717294],[-3.8305269637379866,51.13592910890796],[-3.8166084094925323,51.136146219977945],[-3.8162556628801663,51.127158711362696],[-3.801972897640001,51.12737975181462],[-3.8030233685349373,51.154342442337004],[-3.817314447645507,51.154121190234925],[-3.816961337706636,51.14513371293545],[-3.8312494623779365,51.14491078674779],[-3.8309036933048257,51.13617433601605],[-3.8309183221797136,51.13618385840992],[-3.833918240045886,51.13613683645828],[-3.835115381636021,51.13568638629143],[-3.836705329387777,51.13540961302055],[-3.837579572731986,51.135467818395966],[-3.838715949041808,51.136007517015855],[-3.8398145070377567,51.13703342225936],[-3.842729295405043,51.13879509989156],[-3.843729318709843,51.13877933290298],[-3.8430718087458384,51.1391404368735],[-3.8422475055432446,51.13926134537366],[-3.8412167927025966,51.1399430653271],[-3.8406039843040065,51.141787287503284],[-3.8406918847343747,51.14255930165058],[-3.8403258071162822,51.14341939969415],[-3.836604153062262,51.14618481455134],[-3.835905389419213,51.14731092002741],[-3.8348057846959245,51.14842532620216],[-3.8344449620000924,51.14870077772218],[-3.8337362040315592,51.14885578390155],[-3.8326065071102087,51.14993466866789],[-3.8325302938460166,51.15089811215996],[-3.832770328988503,51.15118212506058],[-3.8330827638565372,51.152571138804504],[-3.8326518274817722,51.15324337459606],[-3.8329990765913156,51.15334584780199],[-3.8341236610155214,51.154299453514454],[-3.834411261794102,51.15433990650694],[-3.8348024387576976,51.15482838231905],[-3.8354712432757676,51.15510566042916],[-3.8358384940770627,51.15571141710719],[-3.837564871583477,51.156691511484865],[-3.8378435541039226,51.15722671001725],[-3.837776729873109,51.158423826155406],[-3.8372532700325683,51.15892666607882],[-3.836710118044131,51.1603740749351],[-3.836184126282128,51.16081399871535],[-3.8357066400720234,51.162835913682045],[-3.835983772452922,51.16657264295755],[-3.8365566485360216,51.16695033417051],[-3.8369854924348847,51.166943597920586],[-3.8360487469592632,51.1682083416172],[-3.835637346299564,51.16937489216887],[-3.8348113674403272,51.170188228503754],[-3.832852443902737,51.17031787158361],[-3.830459024138819,51.17009456593571],[-3.828961587880563,51.16984820803027],[-3.8282325790363387,51.16949989003726],[-3.8274328953886823,51.168810939975295],[-3.8262099691706917,51.16863220036009],[-3.8245275759704285,51.16804694238489],[-3.8205815111345873,51.16773074271449],[-3.815604642372246,51.164840452786365],[-3.8149767563797212,51.16414875082972],[-3.8143663423560628,51.16398735804667],[-3.81312544071618,51.163988610232934],[-3.811139723941808,51.16258951625225],[-3.8098495777937607,51.16232964738634],[-3.808996126026177,51.16190326394601],[-3.8070803394307235,51.161555183755084],[-3.8062815626207467,51.16124377999531],[-3.805150989532122,51.161225267568355],[-3.80233927006278,51.160639135853536],[-3.800629461264058,51.159334524302515],[-3.79885777246489,51.158642359520556],[-3.79640047771766,51.15833840659348],[-3.7927405858523167,51.158367589448126],[-3.7919115813265063,51.158749016848816],[-3.7866158207567207,51.162337292750124],[-3.785951709627574,51.16439782229287],[-3.785281954787336,51.16446200727712],[-3.784422483751784,51.16479887099469],[-3.783563270257378,51.165513426524164],[-3.782888213875401,51.165811494123],[-3.7828111107280242,51.1660374923554],[-3.7821093604640743,51.16564350860295],[-3.780579567340161,51.16528911121471],[-3.7796125860371244,51.16469231425218],[-3.7764087977167646,51.16394965381701],[-3.775668253352559,51.164032844891345],[-3.7750517246770383,51.16436594996936],[-3.7738701102452845,51.164509781664975],[-3.773085473743901,51.16493535529575],[-3.7705938862046433,51.16523390326592],[-3.7702218774763625,51.16523054269894],[-3.7698106118334263,51.16494899539415],[-3.7686575544419156,51.16509234200213],[-3.7655494085752,51.16497744044446],[-3.7649568333457575,51.164815511306635],[-3.7649499701690274,51.16463575710219],[-3.765442358240067,51.16442149752537],[-3.7649874406998327,51.16374490525603],[-3.7614206027999306,51.16360084552428],[-3.759645974556114,51.16319590581343],[-3.7595921447065948,51.162908943486855],[-3.758082125582217,51.16118703659197],[-3.7564103100703883,51.160097042967],[-3.7550640087854834,51.160045315108306],[-3.7546005158465077,51.16026810030005],[-3.75272671918287,51.16026023125953],[-3.752477614508332,51.16047979416903],[-3.7519664557599066,51.160577382840884],[-3.7495358794287066,51.16059578928834],[-3.7492009961497854,51.160816628523676],[-3.7473382314597887,51.16110118744315],[-3.745354614936807,51.16121583392806],[-3.74424924919443,51.161106427623736],[-3.7425993077238964,51.16134685703435],[-3.7400800038129645,51.1612888784599],[-3.7382234700715453,51.16098032983425],[-3.737283003746738,51.16031084858034],[-3.7363560663415383,51.16000087363145],[-3.735698137487673,51.159237255171405],[-3.733781100425612,51.15845633803744],[-3.7316896116455007,51.1583614312105],[-3.730576942702354,51.158054161250895],[-3.728465136705959,51.15779762603571],[-3.7277839705467626,51.15755589312547],[-3.725516323798524,51.15733757893838],[-3.7254109087905762,51.157195248753496],[-3.723688198132355,51.15740051395233],[-3.7202293538114217,51.15745145123743],[-3.719606742500164,51.15724478086284],[-3.718779101602195,51.15729292110721],[-3.7176927252478555,51.15653549989652],[-3.715460425300866,51.15649632887218],[-3.70944492147939,51.15701608513395],[-3.708742907145868,51.15736807428213],[-3.708200443715809,51.157393986056256],[-3.707269726806982,51.15774930713331],[-3.7064447156102154,51.15786926426003],[-3.7056997858750926,51.15822186119605],[-3.7041238496894358,51.15853261028751],[-3.70240985952231,51.15936693245217],[-3.701127265637574,51.160266896501035],[-3.6999019656373027,51.16039262985426],[-3.6992317179225913,51.160834027541064],[-3.6980981035897615,51.16112028037098],[-3.69590406898404,51.16134996393535],[-3.6935932166271526,51.16190503978467],[-3.6902159684596523,51.162241675469986],[-3.688744445461103,51.16267660594859],[-3.6846658879752257,51.16260953756886],[-3.6825100147389365,51.16271251987656],[-3.6789633815992686,51.16508364059036],[-3.6775442753607748,51.16539177708549],[-3.676984844493917,51.16574152763082],[-3.6755403708794265,51.16613993137132],[-3.6736540236403283,51.16697629638568],[-3.6720993792624026,51.16788881322191],[-3.671533671320367,51.1680677737998],[-3.665542474244573,51.1685219531086],[-3.6636849185464877,51.16817970084826],[-3.6628243066931336,51.167715863591305],[-3.662477690712562,51.167225649162916],[-3.660138644205971,51.165820034053695],[-3.6584349708102857,51.16537658372848],[-3.6576380927712835,51.1638950806448],[-3.654510715776715,51.16203290160495],[-3.647711961199517,51.16148142013826],[-3.6437064142465356,51.15903780204272],[-3.643024848988137,51.15878659028527],[-3.642064224634104,51.15867533196372],[-3.640399586830456,51.15773532305199],[-3.6385458876680685,51.15748252770624],[-3.635914619046732,51.15788808361221],[-3.634986502062226,51.15833271767846],[-3.6334881683749223,51.15846810494158],[-3.632940910321454,51.158721012902554],[-3.6318609258331267,51.15891594513941],[-3.624749509802687,51.159212814003],[-3.62154668675038,51.16085413052497],[-3.620209195537889,51.16105637768902],[-3.6173672108276596,51.161170143758305]],[[-3.730556399063694,51.128458799002544],[-3.7308925246704776,51.137446722419284],[-3.7451789464245797,51.13723433274978],[-3.7448400503517725,51.12824647707728],[-3.730556399063694,51.128458799002544]]]},"properties":{"id":6,"category":6,"range":"125 - 150","dissolve":0}},{"type":"Feature","geometry":{"bbox":[-3.8305382466416087,51.126935927359305,-3.8030233685349373,51.154342442337004],"type":"Polygon","coordinates":[[[-3.8305269637379866,51.13592910890796],[-3.8309036933048257,51.13617433601605],[-3.8312494623779365,51.14491078674779],[-3.816961337706636,51.14513371293545],[-3.817314447645507,51.154121190234925],[-3.8030233685349373,51.154342442337004],[-3.801972897640001,51.12737975181462],[-3.8162556628801663,51.127158711362696],[-3.8166084094925323,51.136146219977945],[-3.8305269637379866,51.13592910890796]]]},"properties":{"id":7,"category":7,"range":"150-175","dissolve":0}},{"type":"Feature","geometry":{"bbox":[-3.7448400503517725,51.12824647707728,-3.7308925246704776,51.137446722419284],"type":"Polygon","coordinates":[[[-3.730556399063694,51.128458799002544],[-3.7448400503517725,51.12824647707728],[-3.7451789464245797,51.13723433274978],[-3.7308925246704776,51.137446722419284],[-3.730556399063694,51.128458799002544]]]},"properties":{"id":7,"category":7,"range":"150-175","dissolve":0}},{"type":"Feature","geometry":{"bbox":[-3.6144007247596472,51.07616359810769,-3.600442394444128,51.085348447373924],"type":"Polygon","coordinates":[[[-3.600132167306643,51.07635984764379],[-3.6144007247596472,51.07616359810769],[-3.6147137148506756,51.085152135242005],[-3.600442394444128,51.085348447373924],[-3.600132167306643,51.07635984764379]]]},"properties":{"id":6,"category":6,"range":"125 - 150","dissolve":0}},{"type":"Feature","geometry":{"bbox":[-3.5124282364709636,50.57391214494419,-3.498596614745636,50.583084476354394],"type":"Polygon","coordinates":[[[-3.4983112668625016,50.574094665148074],[-3.5124282364709636,50.57391214494419],[-3.512716269913785,50.582901898139006],[-3.498596614745636,50.583084476354394],[-3.4983112668625016,50.574094665148074]]]},"properties":{"id":5,"category":5,"range":"100 - 125","dissolve":0}},{"type":"Feature","geometry":{"bbox":[-3.454620111911487,50.98833380407584,-3.4406558346963005,50.997499738829774],"type":"Polygon","coordinates":[[[-3.454620111911487,50.98833380407584],[-3.4549012553132235,50.9973231496767],[-3.451771159970885,50.99736209998519],[-3.4406558346963005,50.997499738829774],[-3.4404877169141126,50.99207172314291],[-3.4403774412279473,50.9885103369544],[-3.454620111911487,50.98833380407584]]]},"properties":{"id":5,"category":5,"range":"100 - 125","dissolve":0}}],"fileName":"Exe_Rainforest/Exe_Temperate_Rainforest"}