{"type":"FeatureCollection","features":[{"type":"Feature","geometry":{"type":"Polygon","coordinates":[[[-3.5833085263,50.7416868067],[-3.5835156672,50.7406857409],[-3.5825588548,50.7400512157],[-3.5819706907,50.7394206736],[-3.5805790177,50.7368135023],[-3.5802833018,50.7364487855],[-3.5794484092,50.7360643951],[-3.5789503763,50.7347401304],[-3.5777164987,50.734289185],[-3.5771637476,50.7338649858],[-3.5752955299,50.7335125293],[-3.5731757026,50.7328396795],[-3.5721350929,50.7326558664],[-3.5716005512,50.7310802501],[-3.5711961466,50.7308518756],[-3.5708619906,50.7301818801],[-3.5700987393,50.729391758],[-3.5682853533,50.7285528119],[-3.5681027895,50.7281775485],[-3.5674085703,50.7277552064],[-3.5669497281,50.7271678163],[-3.5659598491,50.7272260863],[-3.5650010706,50.7269421839],[-3.5651798698,50.726355217],[-3.5647371975,50.7249761884],[-3.5640018595,50.7241676652],[-3.5630450504,50.7235149941],[-3.5630655946,50.7232808921],[-3.5625940813,50.7231613078],[-3.5623154464,50.7228772566],[-3.5620825061,50.7218371527],[-3.5615538822,50.7212776566],[-3.5615183176,50.7202079268],[-3.5618438211,50.7197718855],[-3.5611491857,50.7193315253],[-3.5578750401,50.7188537219],[-3.5557817268,50.71895363],[-3.5551977156,50.719285184],[-3.5516930047,50.7191160565],[-3.5489276788,50.7194586126],[-3.5486303118,50.7194625641],[-3.5479942215,50.719075308],[-3.5474319584,50.719208681],[-3.546619495,50.7190575853],[-3.5459285613,50.7187250058],[-3.5451875028,50.7185909397],[-3.5445880205,50.7180233134],[-3.543959665,50.7178697593],[-3.5429997451,50.7179724047],[-3.5430693491,50.7175038307],[-3.542058097,50.7169056691],[-3.5413769594,50.7173013919],[-3.540699931,50.7170585308],[-3.5403801873,50.7167120177],[-3.539446245,50.7167423441],[-3.5387459218,50.7169854185],[-3.5380474212,50.7164190661],[-3.5368208818,50.7161654463],[-3.5358621553,50.7163039906],[-3.5343129664,50.7157128499],[-3.5338641191,50.7149813061],[-3.5343738461,50.7149745966],[-3.5343915944,50.7146506036],[-3.5348807589,50.7140146303],[-3.5330479776,50.7129775416],[-3.5317269532,50.7137323627],[-3.5298810487,50.7135947283],[-3.5299213684,50.7139629249],[-3.5295958985,50.7144078692],[-3.5302288471,50.7147053332],[-3.5311035846,50.7154672698],[-3.5317092302,50.7166644156],[-3.5310200006,50.7172490434],[-3.5299704192,50.7172088662],[-3.5287882523,50.7165768606],[-3.5258748639,50.7141059064],[-3.5254603182,50.7135537478],[-3.5256424845,50.7130567313],[-3.5255003194,50.7121682543],[-3.52416804,50.7103960161],[-3.5228582952,50.7093159534],[-3.5214493248,50.7086688505],[-3.5192646976,50.7068087541],[-3.5187901826,50.7061494338],[-3.5180840566,50.7057719152],[-3.5172526396,50.7060525419],[-3.5178703328,50.7066882552],[-3.5178590212,50.7069775627],[-3.5182959287,50.7075044484],[-3.5173795359,50.7064610901],[-3.516961893,50.7081716168],[-3.5167855068,50.7081912598],[-3.5161059898,50.7078111139],[-3.5167158851,50.7073077798],[-3.5168560858,50.7064839555],[-3.5150604798,50.7073131511],[-3.5139625439,50.7066439276],[-3.5131905554,50.7064201277],[-3.5124711909,50.7069510778],[-3.512175362,50.7074405553],[-3.5113970289,50.7079003172],[-3.5108793037,50.7094179055],[-3.5118275858,50.7098372867],[-3.512254669,50.7107850359],[-3.5110896848,50.7115555839],[-3.5111541241,50.7117975676],[-3.5106912414,50.7123791397],[-3.5109088289,50.7129788701],[-3.5104124121,50.7133989963],[-3.5099908246,50.7143847285],[-3.509225352,50.7152490065],[-3.50943167,50.7154981468],[-3.5086456718,50.7157241627],[-3.5082604626,50.7160798868],[-3.5081433978,50.7168458314],[-3.5084988218,50.7173268695],[-3.5084496874,50.7175613309],[-3.5089285189,50.7179148643],[-3.5084450386,50.7182988409],[-3.50840745,50.7188928844],[-3.5090096967,50.7191189141],[-3.5092781614,50.7195381225],[-3.5094194572,50.7212899837],[-3.5100038225,50.7227213401],[-3.5108425446,50.7232500683],[-3.5114642429,50.7240783833],[-3.5119538534,50.7243238451],[-3.5125992776,50.7250079538],[-3.5127189993,50.7260855939],[-3.5130274195,50.7264233355],[-3.5127294781,50.7272905575],[-3.5126630869,50.7287483303],[-3.5130134357,50.7290675411],[-3.5134410158,50.7300242708],[-3.513403774,50.7306273038],[-3.5141033553,50.7312297613],[-3.5146982479,50.7312220323],[-3.5149298045,50.7313719087],[-3.5159281403,50.7337653812],[-3.5163763731,50.7340420882],[-3.5163128692,50.7347084165],[-3.5150854836,50.7353179321],[-3.5142923112,50.7362095792],[-3.51467541,50.7366632585],[-3.5154732646,50.7385504677],[-3.5163458943,50.7392405944],[-3.5175139419,50.7394232462],[-3.5184970436,50.740021986],[-3.51943554,50.740117676],[-3.5211045199,50.7408873171],[-3.5231077326,50.7414727026],[-3.5244666098,50.7414189665],[-3.5247905523,50.7417924469],[-3.5255809949,50.7416921723],[-3.5259008564,50.7419397973],[-3.5263150805,50.7424739706],[-3.5262777055,50.7430680156],[-3.526548512,50.7435501061],[-3.5270743462,50.7440288554],[-3.5269826477,50.7446955584],[-3.5264813684,50.7449719215],[-3.5265456441,50.7452049047],[-3.5262126227,50.7454251036],[-3.5260914032,50.746056219],[-3.5262278486,50.7467649005],[-3.5265585691,50.7473451322],[-3.5269044727,50.7475204673],[-3.5269601742,50.7479244283],[-3.5279770956,50.7478121841],[-3.5305925925,50.747166331],[-3.5335285386,50.7467860018],[-3.5351868611,50.7467821615],[-3.5356048609,50.7465608175],[-3.5378907441,50.746242899],[-3.5385082628,50.7460548854],[-3.5396411694,50.7451585871],[-3.540131744,50.7449902278],[-3.5415839758,50.7451868709],[-3.5436979844,50.7452488285],[-3.5454895983,50.7445595868],[-3.5464813528,50.7445464341],[-3.5481207447,50.7448304457],[-3.5487936154,50.7441739913],[-3.5489583061,50.7434433469],[-3.5493433643,50.7432223846],[-3.5493493012,50.7425444915],[-3.5497731612,50.74207453],[-3.5509909413,50.742040347],[-3.5528081196,50.7429874304],[-3.5540047294,50.743169337],[-3.5556236636,50.7441190193],[-3.5581470272,50.7449846476],[-3.5592008327,50.7451324366],[-3.5616618756,50.7449735872],[-3.5640983737,50.7453546128],[-3.5670112238,50.745567306],[-3.5675849084,50.7453437538],[-3.5679686461,50.7453745661],[-3.5696459563,50.7446685023],[-3.5725578922,50.7444314039],[-3.5737669687,50.7437136093],[-3.5772102032,50.7428396884],[-3.5782774972,50.7421237645],[-3.5802942934,50.7418266415],[-3.5833085263,50.7416868067]]]},"properties":{"id":"GB108045009040","name":"Exe (Creedy to Estuary)","uri":"http://environment.data.gov.uk/catchment-planning/so/WaterBody/GB108045009040","water-body-type":{"string":"River","lang":"en"},"geometry-type":"http://environment.data.gov.uk/catchment-planning/def/geometry/Catchment"}},{"type":"Feature","geometry":{"type":"MultiLineString","coordinates":[[[-3.5261055506,50.7150471771],[-3.5238925331,50.7132821091],[-3.5232777796,50.7126566093],[-3.5216874737,50.7114568939],[-3.5208720515,50.7111666126],[-3.5187045878,50.7104704247],[-3.517925214,50.70976034]],[[-3.5470092523,50.7344377097],[-3.5452363249,50.7327493375],[-3.5451816674,50.732582141],[-3.5451195902,50.7321356174],[-3.5456226666,50.7302398624],[-3.5457173769,50.7300903573],[-3.5457574809,50.7299634974]],[[-3.5475535035,50.7410601587],[-3.5472011989,50.7403959595],[-3.5471356162,50.7401934269],[-3.5470691027,50.7399088428],[-3.5470124186,50.7394790413],[-3.5471143881,50.7389044359],[-3.5479404639,50.7379133413],[-3.5485530392,50.7369892938]],[[-3.5312871369,50.7181640394],[-3.5309781484,50.7181371841],[-3.5297990057,50.71769436],[-3.5290662672,50.7171339544],[-3.5273454165,50.7158767984]],[[-3.548828792,50.7429841555],[-3.5479133698,50.7416310213],[-3.5475535035,50.7410601587]],[[-3.5163484812,50.708274416],[-3.5164991303,50.7080665801]],[[-3.5273454165,50.7158767984],[-3.5268806555,50.7155376296],[-3.5261055506,50.7150471771]],[[-3.5485530392,50.7369892938],[-3.5486573641,50.7368223754],[-3.5486594106,50.7359447284],[-3.5479719957,50.7352702984]],[[-3.5457574809,50.7299634974],[-3.545935853,50.7290869548],[-3.5454270194,50.7279953248],[-3.5447503964,50.7275228006],[-3.5445103364,50.7273455536],[-3.5440478001,50.7270544117],[-3.5414490188,50.7252834028],[-3.5413127435,50.7251918284],[-3.5411847339,50.7250957899],[-3.5410408042,50.7249733317],[-3.5401319624,50.7238704559],[-3.5399692709,50.722338473],[-3.5402831314,50.720987367]],[[-3.517925214,50.70976034],[-3.5174614617,50.709297603],[-3.5163484812,50.708274416]],[[-3.5402831314,50.720987367],[-3.5397982891,50.7196484305],[-3.5383136849,50.718776853],[-3.5366123263,50.7181927395],[-3.535977739,50.7178207852],[-3.5347262644,50.7173467148],[-3.5331920292,50.717363535],[-3.5327791197,50.7175027406],[-3.5321052604,50.7177849137],[-3.5312871369,50.7181640394]],[[-3.5479719957,50.7352702984],[-3.5470092523,50.7344377097]]]},"properties":{"id":"GB108045009040","name":"Exe (Creedy to Estuary)","uri":"http://environment.data.gov.uk/catchment-planning/so/WaterBody/GB108045009040","water-body-type":{"string":"River","lang":"en"},"geometry-type":"http://environment.data.gov.uk/catchment-planning/def/geometry/RiverLine"}}]}