{"type":"FeatureCollection","features":[{"type":"Feature","geometry":{"bbox":[-3.5145690652705706,50.591777357769935,-3.3886616455994867,50.70983649478688],"type":"Polygon","coordinates":[[[-3.5172526289489463,50.70605257515363],[-3.517870322669355,50.706688288236],[-3.5178590109220647,50.706977596047516],[-3.5182959182868885,50.70750448142576],[-3.5173795254945714,50.706461123136],[-3.516881857824761,50.70823818443777],[-3.516105979643523,50.70781114744107],[-3.5165039101518567,50.70759734997622],[-3.5169350118667633,50.706722811479814],[-3.5158850299253372,50.70457132747259],[-3.514977141184762,50.703895054723176],[-3.5132270294582177,50.703311508247744],[-3.5133333738845876,50.70352672233472],[-3.5123705443599396,50.702932901063306],[-3.5100208767171215,50.7007396257363],[-3.509011579740609,50.70014803714521],[-3.5074306157047364,50.69977415023548],[-3.5032470996320546,50.699822470789734],[-3.5025344302530312,50.699932107739926],[-3.50264134012021,50.700188206415255],[-3.5022700078200604,50.70000043807644],[-3.50317957092719,50.70125335892671],[-3.504086334844786,50.70121631185326],[-3.5048997844085683,50.70073255952031],[-3.5053912115850743,50.70090997277721],[-3.505969888749456,50.70079063930839],[-3.5069025032060464,50.70111311496599],[-3.5059447950894205,50.700855794395245],[-3.505392788211021,50.70095389373297],[-3.504867783752265,50.70080385804025],[-3.504173665031989,50.70124114424504],[-3.5033851803947056,50.70140160971133],[-3.5034417139569567,50.701608693468685],[-3.504636273126273,50.70249295814367],[-3.504492581547672,50.70265808679221],[-3.503871436869489,50.70200516813439],[-3.503692487252852,50.702057794468615],[-3.501708792944242,50.699957610714236],[-3.5013252915227517,50.699638357246606],[-3.50109435763733,50.6983806767335],[-3.500547743799059,50.69774087244391],[-3.499833751585014,50.69722986375988],[-3.4982576142373727,50.69662873676295],[-3.4996452854343425,50.69705081092664],[-3.4976519397410955,50.69478035735741],[-3.4967807406521647,50.694171712332626],[-3.4959598124416877,50.69391279611204],[-3.4942729892267015,50.6936730027179],[-3.491715688755337,50.693784210939455],[-3.493505478229148,50.69440276486849],[-3.4942929128964004,50.69435022177723],[-3.4945159461755813,50.69421486383793],[-3.494443304491416,50.6943496159365],[-3.4937282462702584,50.69446152709203],[-3.4939348184305232,50.694745366369915],[-3.4951850206255686,50.6949231020446],[-3.497093455149626,50.696173988237156],[-3.498240502820487,50.696620221220016],[-3.4979038475496473,50.69664136216337],[-3.4973445109454464,50.69639160981803],[-3.495061663606477,50.69504410692451],[-3.494023416121501,50.69497220871773],[-3.492816665061719,50.694372092961274],[-3.4907606095702493,50.693880066271625],[-3.489214197179829,50.693158095117475],[-3.4877684656874552,50.692187336494534],[-3.4868890767970524,50.69095854724429],[-3.485980468412711,50.69046804081793],[-3.48524745910371,50.69036210729304],[-3.4844455893960795,50.69044037736571],[-3.4828965860915746,50.6909788157006],[-3.482567710489456,50.691247186597366],[-3.481043677344438,50.69101493740702],[-3.4791371694841433,50.69038676692052],[-3.474855601943217,50.68798814776213],[-3.473126760045442,50.68734783468924],[-3.472637013661051,50.68690641562404],[-3.4724832469573914,50.68584572470866],[-3.471940251894938,50.6849946708257],[-3.468872500013707,50.68369179685622],[-3.4684244709277174,50.68373271749727],[-3.4677763230800864,50.68351261713566],[-3.4670321567490245,50.682645461312525],[-3.466367737164002,50.68260744605035],[-3.465734861372824,50.68160556072582],[-3.4650083099782245,50.681590180516025],[-3.465410732644373,50.6811041833669],[-3.46484450902883,50.68044652239414],[-3.4639109828422163,50.68016951992531],[-3.4636048126034598,50.67935892437858],[-3.4630684491351316,50.67904815160238],[-3.463562595462447,50.67860679282684],[-3.463352603142453,50.67805793014221],[-3.4625370641160162,50.67795900581587],[-3.4627249372937556,50.677355678435944],[-3.4624402085154746,50.67713857457426],[-3.461943745655058,50.67722119390431],[-3.460867689700301,50.67682810252826],[-3.458928250431018,50.67544760969262],[-3.4565850929184836,50.67495189578879],[-3.455918112584141,50.6753712247918],[-3.4553958730910974,50.675176077287276],[-3.4557023023978832,50.67564943223512],[-3.454004670003592,50.67707002476312],[-3.4527008180642254,50.67890303637814],[-3.4516058089632002,50.68225535409812],[-3.4518098760398863,50.68276456622278],[-3.452621364699726,50.68338711308094],[-3.4543054677626963,50.68361840423931],[-3.454777885912209,50.68348989252601],[-3.45537687649223,50.68225649122875],[-3.456082931864329,50.68205966545476],[-3.4567437155570175,50.68206916502177],[-3.457748689661882,50.6837407126918],[-3.4595490479564632,50.6849416304563],[-3.4587022317185987,50.68492428009354],[-3.4582547299629485,50.68445013080006],[-3.4573588493898404,50.68403064748684],[-3.456738342955913,50.683172515265404],[-3.4566200446230533,50.682650970836434],[-3.4561971001706357,50.68242154106424],[-3.4557772694717985,50.68259761676852],[-3.45536562438612,50.683496626380176],[-3.4547972048791995,50.68389166913575],[-3.4538334846876095,50.68402051342558],[-3.4519433102191797,50.6837618625631],[-3.450394621531194,50.684249371172356],[-3.4501503914891307,50.68441381709436],[-3.450274074959392,50.68461195872023],[-3.450034130581859,50.68451076277408],[-3.450080424771905,50.68431029943466],[-3.4517000202097052,50.6835365433787],[-3.4510162717914628,50.68272990399069],[-3.450719609665213,50.681985723936194],[-3.4514563578013813,50.67875710268964],[-3.4500484716375657,50.676358448690664],[-3.450141898962377,50.67440565782465],[-3.4496692999425074,50.67313493883242],[-3.4488796840847087,50.672392928940816],[-3.446816029753179,50.671075592970205],[-3.4458296327055837,50.66997761351053],[-3.4453431929712233,50.66983584379791],[-3.444111820790751,50.66791583320617],[-3.443659495390778,50.66768590393152],[-3.443803972016622,50.667358789607995],[-3.4435482456628224,50.666929860245794],[-3.4425371332490604,50.66667647775534],[-3.4423633047991116,50.66687706285203],[-3.442456614953025,50.66720551386427],[-3.4420806275044256,50.667242077791094],[-3.4423475691981964,50.66712976294194],[-3.4422414363883083,50.66688188192583],[-3.442444957491394,50.66662799135772],[-3.442814918870808,50.666636525152896],[-3.4426559762285596,50.66638372772921],[-3.4434811356558113,50.66684600295095],[-3.4432576703645417,50.66621867700241],[-3.4435023831847977,50.66561404088941],[-3.4428065209354313,50.66511207963885],[-3.442170660417615,50.66429566098666],[-3.4412084182759983,50.66232486560108],[-3.4401036939967726,50.66098417798375],[-3.4399442720842175,50.66053125688727],[-3.4371513106587144,50.65764220405083],[-3.436137112932551,50.656237480098156],[-3.4346672817912323,50.652310173641155],[-3.4331976934098796,50.650240686233104],[-3.4332955044803337,50.64968900461708],[-3.4339187935830204,50.64907793955489],[-3.433902913040748,50.648874258099845],[-3.433637162706001,50.64843965253107],[-3.4326823333987635,50.64805892120545],[-3.4330752519690484,50.64787914463617],[-3.4320128811829966,50.64797493675202],[-3.432708243060114,50.64626967382538],[-3.432523337939501,50.645830435310906],[-3.430063019425314,50.64387771059188],[-3.425638746823378,50.641189908018454],[-3.4240708404440867,50.639924361133986],[-3.422691405133111,50.6380978073836],[-3.4221985596014064,50.63688872187928],[-3.4221926946923444,50.635981932030106],[-3.42165468109968,50.635051092279795],[-3.4178400613794815,50.6322698459915],[-3.415534735342578,50.6292323949948],[-3.416128324356596,50.62808271120946],[-3.416214674954991,50.62726917237199],[-3.4156512124622807,50.623872220021475],[-3.416027497118472,50.62251405614901],[-3.4166626536142077,50.62145523389646],[-3.4171041944022793,50.62109516695753],[-3.417860038161565,50.62101261025056],[-3.418473514870411,50.62104731619586],[-3.4200368619374717,50.62160679122521],[-3.421442302176313,50.62145401875854],[-3.4220015758575615,50.621076908298775],[-3.4221943781168136,50.62045295096167],[-3.4206894006493727,50.61972482814624],[-3.4205721663963167,50.61936014292069],[-3.4221334946571864,50.619618267406366],[-3.424346498157548,50.61952562773033],[-3.4261463716672096,50.618289747179006],[-3.426119997790707,50.61774922682415],[-3.424806058269336,50.617365121042596],[-3.4243648211301023,50.617013553152155],[-3.4240419974980414,50.61730899379137],[-3.424054857951967,50.617574698536245],[-3.4246997281591227,50.61794601745224],[-3.4241147773063347,50.61844359766274],[-3.4223975792158425,50.61784159312155],[-3.42301378334438,50.61725788827245],[-3.423804092487878,50.61730050775342],[-3.424362572013145,50.616614676828256],[-3.4242619532018237,50.6164550338898],[-3.423792358785163,50.61639485002161],[-3.422972321640742,50.616646710467606],[-3.4199051083801506,50.616184328694686],[-3.4172659865532875,50.615999948863426],[-3.415588051152149,50.61565455436867],[-3.414301212646548,50.61504220725646],[-3.408687800664599,50.61153647766182],[-3.4072617142840618,50.611208536240994],[-3.405502524254673,50.61102998131383],[-3.4012594581918094,50.611051377540974],[-3.3985359223455887,50.61033616103585],[-3.396636265743945,50.61035018981695],[-3.3904583985684877,50.60940725258405],[-3.3890230857430392,50.609388072505595],[-3.388007287798339,50.60913526907443],[-3.3878442060960228,50.608195606387284],[-3.3870130280891915,50.60760053297655],[-3.385922867081528,50.60731658469997],[-3.3856318616849674,50.60701628074624],[-3.4437258311215837,50.59267722538367],[-3.443503472114131,50.5928437447805],[-3.443681151750124,50.59312593205281],[-3.443036415422561,50.59556650792715],[-3.4420661190069106,50.59657918879651],[-3.439288263515346,50.59807779916311],[-3.439573620385511,50.598511378381],[-3.4393330209498023,50.59881263674288],[-3.4374542494021134,50.60017595896319],[-3.4322891481301303,50.60331747309719],[-3.4287706757263092,50.606307725220496],[-3.4265409291720843,50.60908015815512],[-3.4247683789118533,50.61077515593633],[-3.424641776287891,50.611306360740464],[-3.425289030786473,50.61270250368233],[-3.4259698638106264,50.613302474786224],[-3.426562546419768,50.61342054838639],[-3.426966465851279,50.61334201637169],[-3.428276852668079,50.6125383047302],[-3.4277573088743774,50.612246643403914],[-3.429534850723804,50.61194008486281],[-3.430565870190737,50.61120797801085],[-3.4307514221373636,50.61060530485251],[-3.4303672502907494,50.61103203262009],[-3.429117907284753,50.61119306103617],[-3.4281117131660372,50.61098494240889],[-3.4274307789504626,50.61050128044974],[-3.427628977767955,50.60897993157606],[-3.428698205733343,50.60776926048075],[-3.429555330540928,50.60738829585484],[-3.430358327493833,50.60724123319547],[-3.430871600370208,50.607345681708566],[-3.431066687720944,50.60773410137095],[-3.431333529468143,50.607792515709704],[-3.4323810393097145,50.607522427029224],[-3.4334822813246464,50.607006956241776],[-3.435567131672127,50.6066191927319],[-3.436369216357647,50.60578335853389],[-3.439788480474421,50.6042348859195],[-3.442845303365483,50.602030704654425],[-3.442487224091004,50.602567280351714],[-3.443093163735162,50.602815479329706],[-3.443564552496347,50.602738228475005],[-3.443019694916051,50.602704426755324],[-3.442645517501969,50.60249457742658],[-3.443540277321631,50.601714342090226],[-3.4437555133351476,50.60172590616805],[-3.4447951642715604,50.605539000453305],[-3.4443300495106053,50.60734850879228],[-3.445426142981544,50.61333268681937],[-3.4470453477755405,50.61708518132209],[-3.447415245193563,50.616869132475074],[-3.4479534834175563,50.61681431864663],[-3.4488687583005047,50.61696651697904],[-3.4490619912556904,50.61715045602466],[-3.4488687052669644,50.61743348136087],[-3.448995469100241,50.61833840187476],[-3.4483948169301994,50.61866462560795],[-3.447273340659964,50.61890809580211],[-3.4470336913241097,50.6206636231086],[-3.4461412127479947,50.62343153832216],[-3.446115124236223,50.62381291162846],[-3.4463335353358957,50.62392205931245],[-3.4460890299806253,50.624099647674775],[-3.446062756731018,50.62453584683749],[-3.4464651664707064,50.625980150524214],[-3.4482579513492913,50.629191719035056],[-3.4494530208071845,50.6323834216756],[-3.449724845984438,50.632476052049284],[-3.450091687080241,50.632328131497076],[-3.449589438280566,50.63256703239241],[-3.4494945875669454,50.63306260509079],[-3.4498750314468722,50.636144905447665],[-3.4525680640670426,50.642473949230435],[-3.4527088568353337,50.643551467970575],[-3.4525271364885026,50.644720810322404],[-3.451344381221725,50.64652370426676],[-3.4513990233778427,50.647305481496694],[-3.452613979919377,50.64934911638684],[-3.4554712660089946,50.652792510348796],[-3.4561290883656377,50.655376251609674],[-3.456664838718952,50.656283637086794],[-3.4575960114468933,50.657040938872704],[-3.4597785931815705,50.65792190251334],[-3.4607206145900875,50.657950561642906],[-3.4620725184512793,50.658819261987624],[-3.465334900516121,50.66022951177526],[-3.467305286864057,50.66327581159934],[-3.468107537619544,50.66393033966246],[-3.467465784099065,50.66461000191918],[-3.46616411984502,50.663292485239445],[-3.466707420238465,50.66485784792449],[-3.4666709137715763,50.66551973564752],[-3.467634755779761,50.66744117791296],[-3.467564466272294,50.6747553272159],[-3.467259483850328,50.675314865369714],[-3.467611636763185,50.67586411291694],[-3.4678219289565915,50.67754465864448],[-3.468784703932381,50.68103047024794],[-3.4686690456712443,50.68173542984125],[-3.4692094685588972,50.68208787273941],[-3.4713050126819316,50.68289628974324],[-3.475488699169395,50.6835356033273],[-3.4768446497891246,50.684058215746205],[-3.4785302906219915,50.68530975949292],[-3.480578016705069,50.68725144101852],[-3.4830850668951174,50.68865269858776],[-3.481817140716106,50.689430040815346],[-3.481341905211166,50.68945746023522],[-3.4814044582055264,50.68970206158165],[-3.482517713772733,50.6899610612702],[-3.4851773282217127,50.689807844034064],[-3.486695877922728,50.690043369246546],[-3.48777543253712,50.69075421732829],[-3.488964030799883,50.69221597162322],[-3.4909968606194006,50.69324915773041],[-3.494240640494663,50.693172940865324],[-3.4958600764184857,50.69339030576897],[-3.497175372898717,50.693811076238404],[-3.4990832602073905,50.69516605656347],[-3.499797911895654,50.69502269117782],[-3.5007164380237965,50.6954789949929],[-3.4997706441640903,50.6950360914186],[-3.4992708139934936,50.69533984837739],[-3.500612055093706,50.69679785912949],[-3.5019397432217163,50.6972553777316],[-3.5007209979883123,50.696887730077066],[-3.5016272233876675,50.69823853071656],[-3.5018142199044,50.699344784049735],[-3.502416993034756,50.699462742663655],[-3.5070516092846353,50.69935989175321],[-3.5090336153540536,50.699766992780035],[-3.51094836566107,50.70101771845044],[-3.5122456357088785,50.70238393325715],[-3.5139952442910056,50.703150272057215],[-3.51515557572662,50.703449499410794],[-3.515792650926748,50.703832774874236],[-3.5172526289489463,50.70605257515363]]]},"properties":{"RBD_ID":"8","MNCAT_NAME":"South West TraC","RBD_NAME":"South West","OPCAT_ID":"3182","MANCAT_ID":"3086","sub-type":"SurfaceWater","url":"/catchment-planning/OperationalCatchment/3182","OPCAT_NAME":"Exe Estuary"}},{"type":"Feature","geometry":{"bbox":[-3.5145690650191703,50.591777357773196,-3.3886602232620624,50.7097883667086],"type":"MultiPolygon","coordinates":[[[[-3.5002483255578314,50.69518405513745],[-3.500336439689796,50.69521205905793],[-3.5004062827361566,50.695262061986945],[-3.5002483255578314,50.69518405513745]]],[[[-3.500487230083465,50.69531536363632],[-3.500661592554674,50.69543265754769],[-3.50070451389791,50.69548691907583],[-3.500487230083465,50.69531536363632]]],[[[-3.5002483255578314,50.69518405513745],[-3.4996714650580487,50.69503804261328],[-3.4992811099900987,50.69538427188162],[-3.5006120546912127,50.69679785924346],[-3.501939743098603,50.69725537801841],[-3.500720997873583,50.69688773036623],[-3.5016272231221035,50.69823853090774],[-3.5018142197816826,50.699344784320765],[-3.502416992625768,50.699462743027325],[-3.507051609123139,50.69935989202389],[-3.509033615178105,50.699766993048016],[-3.5109491950737093,50.701025464688925],[-3.512245635508726,50.70238393350567],[-3.513995244077538,50.703150272299894],[-3.515155575504561,50.70344949965095],[-3.515792650700612,50.70383277511214],[-3.5172526289489463,50.70605257515363],[-3.517870322144943,50.70668828845687],[-3.5178590105293446,50.706977595993486],[-3.5182959180415536,50.707504481635944],[-3.5173795252559668,50.70646112335398],[-3.5169618823772835,50.708171650063065],[-3.516785496159828,50.708191293032726],[-3.516105979116638,50.70781114720323],[-3.5167158744801905,50.70730781308461],[-3.5168560751053337,50.70648398881787],[-3.5160850382599027,50.70483380389601],[-3.5154364519181533,50.70414894499525],[-3.513227029248443,50.70331150848797],[-3.5133333736779906,50.70352672257596],[-3.5125659918108387,50.70305757517126],[-3.5100208769523698,50.70073962581166],[-3.509011579564282,50.70014803741004],[-3.507430615540763,50.69977415050323],[-3.5032470999148164,50.69982247078191],[-3.5025321816546864,50.69993575221784],[-3.5026413403995464,50.70018820613562],[-3.5022700081011866,50.700000437797385],[-3.5031795707943196,50.70125335918361],[-3.5040871610346445,50.701215773358115],[-3.50489978426296,50.700732559780924],[-3.5053912114357724,50.70090997303653],[-3.5059701863284864,50.7007908981459],[-3.5069025030463155,50.701113115223876],[-3.50594479493591,50.700855794654835],[-3.505392788061704,50.70095389399201],[-3.5048677836069095,50.70080385830031],[-3.5041736652992723,50.70124114395699],[-3.5033851806902514,50.701401610141005],[-3.5034417138221325,50.70160869372297],[-3.5045952379285428,50.70246133531289],[-3.504492581405042,50.70265808703855],[-3.5038714368614827,50.70200516802404],[-3.5036924871164867,50.70205779471988],[-3.501708792944242,50.699957610714236],[-3.501325291403685,50.699638357515546],[-3.5010943575201137,50.69838067701146],[-3.500547743685463,50.69774087272634],[-3.4998337514772775,50.6972298640466],[-3.498257614924844,50.69662873694248],[-3.499645284889003,50.697050810770754],[-3.4976519399264445,50.694780357478585],[-3.496780740566868,50.69417171264198],[-3.495959812362923,50.69391279642352],[-3.4942729891597484,50.69367300303097],[-3.4917156882825537,50.693784211257224],[-3.493505477596908,50.69440276500405],[-3.4942929122581963,50.694350221913176],[-3.4945159461080277,50.69421486414655],[-3.4944433044238448,50.69434961624477],[-3.493728246348619,50.69446152739727],[-3.4939348183662333,50.69474536667519],[-3.495185020552226,50.69492310234845],[-3.497093454755985,50.69617398781618],[-3.4982405035071107,50.696620220837055],[-3.497344510856426,50.696391610111334],[-3.4950616635342038,50.6950441072274],[-3.4940234160424555,50.69497220857192],[-3.4928166650062336,50.6943720932693],[-3.4907606095293255,50.69388006658322],[-3.4892141965822736,50.693158095352025],[-3.487768465668991,50.692187336818535],[-3.4868890770519165,50.69095854703487],[-3.485980468674022,50.69046804061203],[-3.48524745910443,50.690362107630875],[-3.4844455894026676,50.69044037770297],[-3.4828965861093564,50.69097881603401],[-3.482571744144506,50.69123912374204],[-3.4810436772120514,50.69101493702275],[-3.479137169530251,50.690386767258246],[-3.474855602021396,50.68798814811773],[-3.473011927174709,50.68728496146436],[-3.4726370131697504,50.686906415365435],[-3.472458673767404,50.685788307201136],[-3.4719402519948277,50.684994671203576],[-3.4688725001359124,50.68369179724363],[-3.4684244714725128,50.68373271769949],[-3.467794502785652,50.683513854434715],[-3.4670321568853466,50.682645461707914],[-3.466367737305415,50.68260744644631],[-3.4657342802346824,50.68160549046894],[-3.465008310129418,50.6815901809193],[-3.46536651489096,50.68113557782997],[-3.4648445093110274,50.68044652244379],[-3.463910982138634,50.680169519900346],[-3.463604812765332,50.679358924798194],[-3.4630684493005237,50.679048152024485],[-3.4635625959075678,50.67860679324894],[-3.463352602448759,50.678057930312676],[-3.462537064285631,50.677959006246255],[-3.462724937462246,50.67735567887091],[-3.462440208685874,50.677138575010574],[-3.4619437458292643,50.67722119434027],[-3.460867689882918,50.67682810296747],[-3.458928249776136,50.6754476100624],[-3.45658509284661,50.674951896155136],[-3.455918112078413,50.675371224711796],[-3.455395873286035,50.67517607683932],[-3.4556107343776334,50.6757245064173],[-3.4537095481677094,50.67741908386909],[-3.4528660089999184,50.67860673396051],[-3.4523454020896813,50.679810717296554],[-3.4522881739118083,50.67994306462586],[-3.4516059310392198,50.68211803703664],[-3.4517252272212864,50.682647161576696],[-3.4522394642659116,50.683141446452964],[-3.4531345689877044,50.68353859186636],[-3.454604304316984,50.683580320141246],[-3.4552052589676965,50.68237453166547],[-3.4558207903480413,50.68209937318582],[-3.4567437156115686,50.68206916488375],[-3.457748689847671,50.683740712449776],[-3.458797596318924,50.68432516061891],[-3.459457697445314,50.68494213587417],[-3.458702231200503,50.684924280211376],[-3.4582116927964592,50.684435768773994],[-3.4573309285655083,50.6840059252896],[-3.4567383431686487,50.683172515656935],[-3.456620044836834,50.682650971231645],[-3.456197100387509,50.682421541461196],[-3.455716501073753,50.68266174737163],[-3.4553551902445268,50.68350187382933],[-3.4548307861596066,50.68387459251518],[-3.453833484073082,50.68402051382136],[-3.451942953259471,50.683762058148936],[-3.450394621933032,50.684249371553896],[-3.4501503917509324,50.684413817476624],[-3.450274074648933,50.68461195892832],[-3.450034130419965,50.6845107631609],[-3.4500847005695507,50.684308097753906],[-3.4517000204601023,50.68353654376748],[-3.4507255735427655,50.68205117928875],[-3.451193574908177,50.67973496624414],[-3.4514851168643594,50.679059425652554],[-3.451430752475858,50.6786400302649],[-3.450048471900184,50.676358449133254],[-3.450141899196775,50.67440565738222],[-3.4495650846307653,50.67298023707448],[-3.446816030012057,50.67107559255295],[-3.445829632971824,50.669977613101196],[-3.4453431932411824,50.669835843389926],[-3.4441118210694754,50.6679158328116],[-3.443659495673153,50.66768590353941],[-3.443803972298196,50.66735878921857],[-3.4435263699452205,50.666930891733045],[-3.4425318733026153,50.66668103151054],[-3.4424001828898314,50.667249957296484],[-3.442080627102243,50.66724207777067],[-3.4423303618698897,50.66716366029186],[-3.442247161016018,50.66685474117263],[-3.442444956800906,50.66662799125545],[-3.4428149184689643,50.66663652531692],[-3.442655976518154,50.66638372734653],[-3.443481136097792,50.66684600310288],[-3.443257670649777,50.666218676620865],[-3.4435023826308138,50.6656140408827],[-3.4428065212244023,50.665112079266265],[-3.442170660711215,50.66429566062004],[-3.441208418576775,50.662324865248706],[-3.4401036934678073,50.66098417801134],[-3.439944272394549,50.66053125654864],[-3.437151310989865,50.65764220373396],[-3.4361371132713576,50.65623747979201],[-3.4346672821412723,50.65231017336447],[-3.433197693770043,50.65024068597071],[-3.4333022598944822,50.64968183108769],[-3.4339187936581075,50.649077939394815],[-3.4339029133961554,50.64887425784839],[-3.4336371630633056,50.6484396522823],[-3.432682333762842,50.648058920959556],[-3.4330744736701906,50.64787920523238],[-3.4320128818290265,50.64797493632372],[-3.4327082435710916,50.64626967377075],[-3.4325233373207356,50.64583043527371],[-3.4300630198091113,50.643877710377105],[-3.4256387472397916,50.64118990782383],[-3.4240708408726754,50.63992436094912],[-3.422691405572,50.638097807212795],[-3.4221985592035704,50.63688872199709],[-3.4221926942947247,50.63598193215438],[-3.4216537993848894,50.63505048604379],[-3.417840061853921,50.632269845863235],[-3.415534735834108,50.629232394889144],[-3.416128324719101,50.6280827116533],[-3.4162146744471578,50.62726917211368],[-3.415651212952964,50.62387221995674],[-3.4160274976064935,50.622514056093756],[-3.416662654097374,50.621455233849],[-3.4171041943247324,50.62109516718919],[-3.4178600380810717,50.62101261057279],[-3.4184735153404,50.6210473161513],[-3.42003686239566,50.621606791176575],[-3.4214423026239804,50.62145401871109],[-3.422001576301179,50.62107690825427],[-3.4221943785591624,50.620452950921475],[-3.4206894001187798,50.619724828303376],[-3.420572166850515,50.619360142888716],[-3.4218175659782477,50.61960200642154],[-3.42425085062536,50.61954991480125],[-3.426146372080385,50.61828974715499],[-3.426119998203747,50.61774922680409],[-3.4248060586919817,50.61736512102561],[-3.424364821556284,50.617013553136985],[-3.42404199792613,50.61730899377494],[-3.4240548583790176,50.61757469851728],[-3.4246997285827425,50.61794601743077],[-3.4241147777342533,50.618443597637665],[-3.422397579656341,50.61784159310098],[-3.423013783769537,50.61725788789643],[-3.4238040929180737,50.6173005077369],[-3.424362572020845,50.616614677001614],[-3.4242619532102156,50.61645503406444],[-3.4238041976144142,50.61639600186471],[-3.4229723220772206,50.61664671045598],[-3.4199051088394334,50.61618432868625],[-3.417265987031894,50.615999948856555],[-3.415588051643442,50.61565455436448],[-3.414301212299492,50.61504220726694],[-3.4086878012079898,50.6115364776883],[-3.407166193215992,50.611194025968956],[-3.405502524819651,50.61102998134381],[-3.401259458789774,50.611051377571044],[-3.3985359219668796,50.61033616081331],[-3.396636265539894,50.610350190222135],[-3.390458398247122,50.60940725227853],[-3.389023086432692,50.60938807254827],[-3.3880072880578798,50.60913526867435],[-3.387844205935729,50.60819560608909],[-3.3870130287936067,50.60760053303243],[-3.385922866665973,50.60731658486135],[-3.3856318616849674,50.60701628074624],[-3.4437258311215837,50.59267722538367],[-3.4435034723972557,50.592843744946],[-3.443681152032106,50.59312593221612],[-3.443036415709382,50.59556650807287],[-3.442066119300806,50.59657918893438],[-3.4392882633979167,50.598077799025226],[-3.439573620698104,50.5985113785043],[-3.4393330212652398,50.59881263686318],[-3.4374542497304392,50.600175959074306],[-3.432289148496213,50.603317473185065],[-3.4287706757064407,50.60630772565044],[-3.4265409295813933,50.60908015820032],[-3.4247683793346546,50.61077515596837],[-3.424641776711642,50.611306360768594],[-3.4252890310694912,50.61270250388131],[-3.425969864224479,50.61330247479947],[-3.426562546829363,50.613420548398786],[-3.426966466257511,50.6133420163848],[-3.4282768530650607,50.61253830474891],[-3.42775730927491,50.61224664342497],[-3.4295348513961907,50.611940084972744],[-3.43056587057047,50.611207978039715],[-3.430747457867762,50.610606464274106],[-3.4303672503975764,50.611032032923376],[-3.4291179071127855,50.611193061161956],[-3.4281117131455408,50.61098494262426],[-3.427430779353369,50.61050128048378],[-3.427628978169531,50.60897993162119],[-3.428698206126835,50.60776926053515],[-3.4295553309281885,50.60738829591198],[-3.430358327875136,50.60724123325368],[-3.430871600747712,50.60734568176605],[-3.4310666880968075,50.60773410142557],[-3.4313335301300265,50.607792515940275],[-3.4323810396755277,50.60752242708572],[-3.433482281682228,50.607006956301845],[-3.4355671320145036,50.6066191927949],[-3.436369216694168,50.6057833586029],[-3.4397884807860377,50.604234885999965],[-3.4428453036537565,50.60203070475142],[-3.442487224381755,50.602567280444795],[-3.4430955168519026,50.60281557518401],[-3.443564376896238,50.602737560738234],[-3.4430196947628025,50.602704426313345],[-3.442645517791428,50.6024945775203],[-3.4435402778927093,50.60171434236582],[-3.4437555136165545,50.60172590626731],[-3.4447951645480996,50.60553900061439],[-3.4443300497876357,50.60734850884954],[-3.4454261432505597,50.613332686833054],[-3.447045348032438,50.61708518130726],[-3.447415245447472,50.61686913246165],[-3.44795348366742,50.61681431863345],[-3.4488687585440467,50.6169665169648],[-3.449061991497785,50.6171504560091],[-3.448868705510209,50.61743348134323],[-3.448995469342779,50.618338401850345],[-3.448394817177422,50.61866462558111],[-3.447273340915144,50.61890809577298],[-3.4470336915813085,50.62066362306645],[-3.4461412130114804,50.62343153826043],[-3.4461151245000803,50.62381291156346],[-3.4463335355987716,50.62392205924639],[-3.446089030244781,50.62409964760693],[-3.446062756995192,50.62453584676658],[-3.4464651667319335,50.62598015044285],[-3.4482579515963283,50.629191718927366],[-3.4494530210462555,50.63238342154676],[-3.449724846221553,50.63247605191954],[-3.450079451429377,50.63233625181757],[-3.449589438518207,50.63256703226204],[-3.4494945878054653,50.633062604953665],[-3.4498750316827054,50.63614490529035],[-3.4525680642829344,50.642473949025806],[-3.452708857050367,50.64355146775838],[-3.4525271367045973,50.64472081010232],[-3.4513443805957014,50.64652370395285],[-3.451399023460906,50.647305481258044],[-3.452613980134943,50.64934911613133],[-3.455471266204089,50.65279251006829],[-3.456129088416279,50.65537625140116],[-3.456664838903837,50.65628363677919],[-3.4575960116256232,50.65704093856009],[-3.4597785933440353,50.657921902194175],[-3.460720614883946,50.657950561231615],[-3.46207251859642,50.65881926166168],[-3.465334900637054,50.66022951143862],[-3.467305286970427,50.6632758112405],[-3.4681075377199044,50.66393033929853],[-3.4674657842041263,50.66461000155032],[-3.4661677479786412,50.66329965511579],[-3.4667074584941604,50.66485816345896],[-3.46667091390471,50.66551973599064],[-3.4676347558835654,50.667441177522704],[-3.467564466376527,50.674755326771944],[-3.467259483956729,50.67531486492077],[-3.4676116368951826,50.675864113362586],[-3.467821928659653,50.677544658993455],[-3.468784094259387,50.68103111416989],[-3.4686690457952665,50.68173543024352],[-3.469209468679186,50.68208787313912],[-3.47130501292263,50.68289628995555],[-3.475488699242541,50.68353560371595],[-3.4768446491224556,50.684058215420876],[-3.4785302906724365,50.68530975986811],[-3.4805780161686592,50.68725144120704],[-3.48308506691197,50.68865269893838],[-3.4818171407422565,50.68943004116033],[-3.4813419052409547,50.68945746057976],[-3.481404458497743,50.689702061291484],[-3.4825177137933103,50.689961061611235],[-3.485177328223159,50.68980784437596],[-3.486695878053954,50.69004336958486],[-3.4877754325195554,50.690754217663674],[-3.4889640307728556,50.69221597194752],[-3.490996860577039,50.69324915804677],[-3.4942494458982534,50.69317413913733],[-3.495538096342207,50.69332228180454],[-3.4970252969519673,50.69375365920501],[-3.497175372898717,50.693811076238404],[-3.49908325995204,50.69516605650787],[-3.499688863185952,50.695017961471365],[-3.5002483255578314,50.69518405513745]]]]},"properties":{"WB_CAT":"Transitional Water","RBD_ID":"8","MNCAT_NAME":"South West TraC","RBD_NAME":"South West","OPCAT_ID":"3182","hydromorph":"heavily modified","MANCAT_ID":"3086","url":"/catchment-planning/WaterBody/GB510804505600","OPCAT_NAME":"Exe Estuary","WB_ID":"GB510804505600","version":"2","WB_NAME":"EXE"}}]}